<?xml version="1.0" encoding="UTF-8"?><gpx creator="Wikiloc - https://www.wikiloc.com" version="1.1" xmlns="http://www.topografix.com/GPX/1/1" xmlns:xsi="http://www.w3.org/2001/XMLSchema-instance" xsi:schemaLocation="http://www.topografix.com/GPX/1/1 http://www.topografix.com/GPX/1/1/gpx.xsd"><metadata><name>Wikiloc - Juan de Fuca Escape Trail</name><author><name>Walter Moar</name><link href="https://www.wikiloc.com/wikiloc/user.do?id=1267027"><text>Walter Moar on Wikiloc</text></link></author><link href="https://www.wikiloc.com/hiking-trails/juan-de-fuca-escape-trail-9165017"><text>Juan de Fuca Escape Trail on Wikiloc</text></link><time>2015-03-23T00:54:25Z</time></metadata><trk><name>Juan de Fuca Escape Trail - Wikiloc</name><cmt></cmt><desc></desc><trkseg><trkpt lat="48.493542" lon="-124.294047"><ele>10.787</ele><time>2015-03-23T00:18:50Z</time></trkpt><trkpt lat="48.493564" lon="-124.294040"><ele>11.342</ele><time>2015-03-23T00:18:51Z</time></trkpt><trkpt lat="48.493482" lon="-124.294111"><ele>8.226</ele><time>2015-03-23T00:19:05Z</time></trkpt><trkpt lat="48.493561" lon="-124.294170"><ele>9.007</ele><time>2015-03-23T00:19:18Z</time></trkpt><trkpt lat="48.493637" lon="-124.294184"><ele>10.477</ele><time>2015-03-23T00:19:38Z</time></trkpt><trkpt lat="48.493727" lon="-124.294134"><ele>13.429</ele><time>2015-03-23T00:19:54Z</time></trkpt><trkpt lat="48.493666" lon="-124.294071"><ele>13.144</ele><time>2015-03-23T00:20:10Z</time></trkpt><trkpt lat="48.493651" lon="-124.294003"><ele>14.583</ele><time>2015-03-23T00:20:24Z</time></trkpt><trkpt lat="48.493653" lon="-124.293897"><ele>18.348</ele><time>2015-03-23T00:20:38Z</time></trkpt><trkpt lat="48.493627" lon="-124.293915"><ele>17.199</ele><time>2015-03-23T00:20:56Z</time></trkpt><trkpt lat="48.493633" lon="-124.293881"><ele>18.545</ele><time>2015-03-23T00:21:07Z</time></trkpt><trkpt lat="48.493656" lon="-124.293888"><ele>18.726</ele><time>2015-03-23T00:21:16Z</time></trkpt><trkpt lat="48.493656" lon="-124.293891"><ele>18.647</ele><time>2015-03-23T00:21:17Z</time></trkpt><trkpt lat="48.493618" lon="-124.293902"><ele>17.411</ele><time>2015-03-23T00:21:28Z</time></trkpt><trkpt lat="48.493610" lon="-124.293905"><ele>17.107</ele><time>2015-03-23T00:21:42Z</time></trkpt><trkpt lat="48.493630" lon="-124.293749"><ele>23.261</ele><time>2015-03-23T00:22:01Z</time></trkpt><trkpt lat="48.493683" lon="-124.293673"><ele>27.533</ele><time>2015-03-23T00:22:16Z</time></trkpt><trkpt lat="48.493794" lon="-124.293656"><ele>29.858</ele><time>2015-03-23T00:22:36Z</time></trkpt><trkpt lat="48.493839" lon="-124.293613"><ele>32.087</ele><time>2015-03-23T00:22:52Z</time></trkpt><trkpt lat="48.493847" lon="-124.293628"><ele>31.562</ele><time>2015-03-23T00:23:07Z</time></trkpt><trkpt lat="48.493857" lon="-124.293591"><ele>33.183</ele><time>2015-03-23T00:23:26Z</time></trkpt><trkpt lat="48.493789" lon="-124.293627"><ele>31.029</ele><time>2015-03-23T00:23:39Z</time></trkpt><trkpt lat="48.493851" lon="-124.293593"><ele>32.984</ele><time>2015-03-23T00:23:56Z</time></trkpt><trkpt lat="48.493968" lon="-124.293548"><ele>35.407</ele><time>2015-03-23T00:24:01Z</time></trkpt><trkpt lat="48.493895" lon="-124.293574"><ele>34.017</ele><time>2015-03-23T00:24:12Z</time></trkpt><trkpt lat="48.493851" lon="-124.293469"><ele>37.907</ele><time>2015-03-23T00:24:26Z</time></trkpt><trkpt lat="48.493801" lon="-124.293218"><ele>48.217</ele><time>2015-03-23T00:24:44Z</time></trkpt><trkpt lat="48.493731" lon="-124.293029"><ele>55.589</ele><time>2015-03-23T00:24:58Z</time></trkpt><trkpt lat="48.493780" lon="-124.292952"><ele>58.054</ele><time>2015-03-23T00:25:11Z</time></trkpt><trkpt lat="48.493791" lon="-124.292945"><ele>58.033</ele><time>2015-03-23T00:25:19Z</time></trkpt><trkpt lat="48.493835" lon="-124.292917"><ele>58.118</ele><time>2015-03-23T00:25:37Z</time></trkpt><trkpt lat="48.493821" lon="-124.292853"><ele>60.399</ele><time>2015-03-23T00:25:59Z</time></trkpt><trkpt lat="48.493841" lon="-124.292709"><ele>64.195</ele><time>2015-03-23T00:26:20Z</time></trkpt><trkpt lat="48.493806" lon="-124.292679"><ele>65.432</ele><time>2015-03-23T00:26:41Z</time></trkpt><trkpt lat="48.493823" lon="-124.292695"><ele>64.792</ele><time>2015-03-23T00:26:44Z</time></trkpt><trkpt lat="48.493938" lon="-124.292707"><ele>62.711</ele><time>2015-03-23T00:27:00Z</time></trkpt><trkpt lat="48.493967" lon="-124.292575"><ele>66.307</ele><time>2015-03-23T00:27:15Z</time></trkpt><trkpt lat="48.493905" lon="-124.292492"><ele>69.152</ele><time>2015-03-23T00:27:26Z</time></trkpt><trkpt lat="48.493901" lon="-124.292475"><ele>69.634</ele><time>2015-03-23T00:27:38Z</time></trkpt><trkpt lat="48.493956" lon="-124.292314"><ele>73.839</ele><time>2015-03-23T00:27:49Z</time></trkpt><trkpt lat="48.494015" lon="-124.292257"><ele>75.648</ele><time>2015-03-23T00:28:06Z</time></trkpt><trkpt lat="48.494077" lon="-124.292234"><ele>75.833</ele><time>2015-03-23T00:28:20Z</time></trkpt><trkpt lat="48.494086" lon="-124.292191"><ele>77.164</ele><time>2015-03-23T00:28:37Z</time></trkpt><trkpt lat="48.494083" lon="-124.292119"><ele>79.560</ele><time>2015-03-23T00:28:53Z</time></trkpt><trkpt lat="48.494148" lon="-124.292139"><ele>78.162</ele><time>2015-03-23T00:29:13Z</time></trkpt><trkpt lat="48.494225" lon="-124.292128"><ele>77.683</ele><time>2015-03-23T00:29:33Z</time></trkpt><trkpt lat="48.494388" lon="-124.292037"><ele>79.411</ele><time>2015-03-23T00:29:50Z</time></trkpt><trkpt lat="48.494400" lon="-124.291913"><ele>83.407</ele><time>2015-03-23T00:30:06Z</time></trkpt><trkpt lat="48.494448" lon="-124.291799"><ele>86.615</ele><time>2015-03-23T00:30:20Z</time></trkpt><trkpt lat="48.494533" lon="-124.291803"><ele>85.717</ele><time>2015-03-23T00:30:38Z</time></trkpt><trkpt lat="48.494504" lon="-124.291929"><ele>82.032</ele><time>2015-03-23T00:30:53Z</time></trkpt><trkpt lat="48.494437" lon="-124.291963"><ele>81.591</ele><time>2015-03-23T00:31:09Z</time></trkpt><trkpt lat="48.494392" lon="-124.291942"><ele>82.516</ele><time>2015-03-23T00:31:21Z</time></trkpt><trkpt lat="48.494356" lon="-124.291857"><ele>85.757</ele><time>2015-03-23T00:31:40Z</time></trkpt><trkpt lat="48.494368" lon="-124.291749"><ele>88.953</ele><time>2015-03-23T00:32:00Z</time></trkpt><trkpt lat="48.494382" lon="-124.291666"><ele>91.221</ele><time>2015-03-23T00:32:16Z</time></trkpt><trkpt lat="48.494394" lon="-124.291636"><ele>92.041</ele><time>2015-03-23T00:32:37Z</time></trkpt><trkpt lat="48.494410" lon="-124.291603"><ele>92.805</ele><time>2015-03-23T00:32:58Z</time></trkpt><trkpt lat="48.494391" lon="-124.291557"><ele>94.307</ele><time>2015-03-23T00:33:14Z</time></trkpt><trkpt lat="48.494374" lon="-124.291552"><ele>94.581</ele><time>2015-03-23T00:33:23Z</time></trkpt><trkpt lat="48.494245" lon="-124.291537"><ele>94.713</ele><time>2015-03-23T00:33:43Z</time></trkpt><trkpt lat="48.494337" lon="-124.291488"><ele>96.478</ele><time>2015-03-23T00:34:03Z</time></trkpt><trkpt lat="48.494385" lon="-124.291436"><ele>97.587</ele><time>2015-03-23T00:34:18Z</time></trkpt><trkpt lat="48.494471" lon="-124.291327"><ele>100.272</ele><time>2015-03-23T00:34:33Z</time></trkpt><trkpt lat="48.494417" lon="-124.291242"><ele>102.583</ele><time>2015-03-23T00:34:55Z</time></trkpt><trkpt lat="48.494435" lon="-124.291164"><ele>104.119</ele><time>2015-03-23T00:35:09Z</time></trkpt><trkpt lat="48.494462" lon="-124.291055"><ele>106.776</ele><time>2015-03-23T00:35:24Z</time></trkpt><trkpt lat="48.494432" lon="-124.290977"><ele>107.990</ele><time>2015-03-23T00:35:42Z</time></trkpt><trkpt lat="48.494489" lon="-124.290815"><ele>109.919</ele><time>2015-03-23T00:35:58Z</time></trkpt><trkpt lat="48.494595" lon="-124.290749"><ele>112.807</ele><time>2015-03-23T00:36:16Z</time></trkpt><trkpt lat="48.494636" lon="-124.290666"><ele>113.586</ele><time>2015-03-23T00:36:32Z</time></trkpt><trkpt lat="48.494695" lon="-124.290539"><ele>115.398</ele><time>2015-03-23T00:36:49Z</time></trkpt><trkpt lat="48.494742" lon="-124.290401"><ele>118.053</ele><time>2015-03-23T00:37:07Z</time></trkpt><trkpt lat="48.494739" lon="-124.290345"><ele>119.132</ele><time>2015-03-23T00:37:25Z</time></trkpt><trkpt lat="48.494773" lon="-124.290189"><ele>123.057</ele><time>2015-03-23T00:37:39Z</time></trkpt><trkpt lat="48.494792" lon="-124.290149"><ele>124.498</ele><time>2015-03-23T00:37:53Z</time></trkpt><trkpt lat="48.494826" lon="-124.289994"><ele>127.534</ele><time>2015-03-23T00:38:10Z</time></trkpt><trkpt lat="48.494913" lon="-124.289892"><ele>130.816</ele><time>2015-03-23T00:38:25Z</time></trkpt><trkpt lat="48.494999" lon="-124.289721"><ele>132.776</ele><time>2015-03-23T00:38:44Z</time></trkpt><trkpt lat="48.495052" lon="-124.289687"><ele>133.713</ele><time>2015-03-23T00:38:59Z</time></trkpt><trkpt lat="48.495079" lon="-124.289634"><ele>134.507</ele><time>2015-03-23T00:39:11Z</time></trkpt><trkpt lat="48.495099" lon="-124.289574"><ele>135.210</ele><time>2015-03-23T00:39:24Z</time></trkpt><trkpt lat="48.495141" lon="-124.289477"><ele>136.312</ele><time>2015-03-23T00:39:39Z</time></trkpt><trkpt lat="48.495245" lon="-124.289426"><ele>137.617</ele><time>2015-03-23T00:39:53Z</time></trkpt><trkpt lat="48.495322" lon="-124.289392"><ele>138.656</ele><time>2015-03-23T00:40:05Z</time></trkpt><trkpt lat="48.495439" lon="-124.289300"><ele>140.611</ele><time>2015-03-23T00:40:20Z</time></trkpt><trkpt lat="48.495519" lon="-124.289231"><ele>141.592</ele><time>2015-03-23T00:40:28Z</time></trkpt><trkpt lat="48.495669" lon="-124.289136"><ele>142.168</ele><time>2015-03-23T00:40:45Z</time></trkpt><trkpt lat="48.495825" lon="-124.289081"><ele>143.353</ele><time>2015-03-23T00:41:00Z</time></trkpt><trkpt lat="48.496038" lon="-124.289081"><ele>144.804</ele><time>2015-03-23T00:41:19Z</time></trkpt><trkpt lat="48.496212" lon="-124.289096"><ele>145.114</ele><time>2015-03-23T00:41:37Z</time></trkpt><trkpt lat="48.496295" lon="-124.289095"><ele>145.107</ele><time>2015-03-23T00:41:44Z</time></trkpt><trkpt lat="48.496450" lon="-124.289094"><ele>144.594</ele><time>2015-03-23T00:41:59Z</time></trkpt><trkpt lat="48.496573" lon="-124.289046"><ele>144.326</ele><time>2015-03-23T00:42:16Z</time></trkpt><trkpt lat="48.496660" lon="-124.288941"><ele>144.171</ele><time>2015-03-23T00:42:30Z</time></trkpt><trkpt lat="48.496787" lon="-124.288678"><ele>145.010</ele><time>2015-03-23T00:42:50Z</time></trkpt><trkpt lat="48.496879" lon="-124.288531"><ele>144.755</ele><time>2015-03-23T00:43:08Z</time></trkpt><trkpt lat="48.497018" lon="-124.288288"><ele>143.956</ele><time>2015-03-23T00:43:24Z</time></trkpt><trkpt lat="48.497175" lon="-124.288051"><ele>143.652</ele><time>2015-03-23T00:43:39Z</time></trkpt><trkpt lat="48.497263" lon="-124.287895"><ele>143.143</ele><time>2015-03-23T00:43:57Z</time></trkpt><trkpt lat="48.497347" lon="-124.287737"><ele>142.864</ele><time>2015-03-23T00:44:12Z</time></trkpt><trkpt lat="48.497476" lon="-124.287569"><ele>142.610</ele><time>2015-03-23T00:44:29Z</time></trkpt><trkpt lat="48.497553" lon="-124.287416"><ele>142.907</ele><time>2015-03-23T00:44:45Z</time></trkpt><trkpt lat="48.497593" lon="-124.287256"><ele>143.793</ele><time>2015-03-23T00:44:58Z</time></trkpt><trkpt lat="48.497660" lon="-124.286959"><ele>144.395</ele><time>2015-03-23T00:45:16Z</time></trkpt><trkpt lat="48.497718" lon="-124.286668"><ele>143.810</ele><time>2015-03-23T00:45:33Z</time></trkpt><trkpt lat="48.497726" lon="-124.286461"><ele>144.069</ele><time>2015-03-23T00:45:49Z</time></trkpt><trkpt lat="48.497785" lon="-124.286196"><ele>146.844</ele><time>2015-03-23T00:46:04Z</time></trkpt><trkpt lat="48.497805" lon="-124.285977"><ele>150.045</ele><time>2015-03-23T00:46:21Z</time></trkpt><trkpt lat="48.497870" lon="-124.285736"><ele>152.791</ele><time>2015-03-23T00:46:36Z</time></trkpt><trkpt lat="48.497984" lon="-124.285293"><ele>155.198</ele><time>2015-03-23T00:46:51Z</time></trkpt><trkpt lat="48.497999" lon="-124.285071"><ele>155.815</ele><time>2015-03-23T00:47:06Z</time></trkpt><trkpt lat="48.498015" lon="-124.284864"><ele>156.426</ele><time>2015-03-23T00:47:20Z</time></trkpt><trkpt lat="48.498033" lon="-124.284630"><ele>157.607</ele><time>2015-03-23T00:47:36Z</time></trkpt><trkpt lat="48.498036" lon="-124.284479"><ele>158.128</ele><time>2015-03-23T00:47:49Z</time></trkpt><trkpt lat="48.498124" lon="-124.284225"><ele>159.280</ele><time>2015-03-23T00:48:05Z</time></trkpt><trkpt lat="48.498237" lon="-124.283921"><ele>159.745</ele><time>2015-03-23T00:48:19Z</time></trkpt><trkpt lat="48.498288" lon="-124.283701"><ele>160.054</ele><time>2015-03-23T00:48:34Z</time></trkpt><trkpt lat="48.498401" lon="-124.283430"><ele>161.479</ele><time>2015-03-23T00:48:48Z</time></trkpt><trkpt lat="48.498410" lon="-124.283066"><ele>161.770</ele><time>2015-03-23T00:49:04Z</time></trkpt><trkpt lat="48.498408" lon="-124.282838"><ele>161.846</ele><time>2015-03-23T00:49:19Z</time></trkpt><trkpt lat="48.498407" lon="-124.282467"><ele>161.725</ele><time>2015-03-23T00:49:37Z</time></trkpt><trkpt lat="48.498418" lon="-124.282227"><ele>161.726</ele><time>2015-03-23T00:49:53Z</time></trkpt><trkpt lat="48.498382" lon="-124.282023"><ele>162.008</ele><time>2015-03-23T00:50:07Z</time></trkpt><trkpt lat="48.498379" lon="-124.281893"><ele>162.107</ele><time>2015-03-23T00:50:20Z</time></trkpt><trkpt lat="48.498399" lon="-124.281660"><ele>161.991</ele><time>2015-03-23T00:50:34Z</time></trkpt><trkpt lat="48.498358" lon="-124.281356"><ele>161.833</ele><time>2015-03-23T00:50:50Z</time></trkpt><trkpt lat="48.498357" lon="-124.281108"><ele>160.938</ele><time>2015-03-23T00:51:06Z</time></trkpt><trkpt lat="48.498399" lon="-124.280857"><ele>159.687</ele><time>2015-03-23T00:51:20Z</time></trkpt><trkpt lat="48.498438" lon="-124.280658"><ele>158.922</ele><time>2015-03-23T00:51:34Z</time></trkpt><trkpt lat="48.498449" lon="-124.280633"><ele>158.993</ele><time>2015-03-23T00:51:36Z</time></trkpt><trkpt lat="48.498531" lon="-124.280473"><ele>158.959</ele><time>2015-03-23T00:51:53Z</time></trkpt><trkpt lat="48.498661" lon="-124.280235"><ele>158.086</ele><time>2015-03-23T00:52:09Z</time></trkpt><trkpt lat="48.498760" lon="-124.280024"><ele>157.160</ele><time>2015-03-23T00:52:21Z</time></trkpt><trkpt lat="48.498874" lon="-124.279832"><ele>157.326</ele><time>2015-03-23T00:52:37Z</time></trkpt><trkpt lat="48.498953" lon="-124.279693"><ele>157.507</ele><time>2015-03-23T00:52:47Z</time></trkpt><trkpt lat="48.499066" lon="-124.279514"><ele>157.837</ele><time>2015-03-23T00:53:03Z</time></trkpt><trkpt lat="48.499184" lon="-124.279321"><ele>158.669</ele><time>2015-03-23T00:53:18Z</time></trkpt><trkpt lat="48.499302" lon="-124.279153"><ele>159.734</ele><time>2015-03-23T00:53:34Z</time></trkpt><trkpt lat="48.499435" lon="-124.278922"><ele>160.263</ele><time>2015-03-23T00:53:51Z</time></trkpt><trkpt lat="48.499637" lon="-124.278863"><ele>161.088</ele><time>2015-03-23T00:54:08Z</time></trkpt><trkpt lat="48.499845" lon="-124.278808"><ele>161.729</ele><time>2015-03-23T00:54:25Z</time></trkpt></trkseg></trk></gpx>