<?xml version="1.0" encoding="UTF-8"?><gpx creator="Wikiloc - https://www.wikiloc.com" version="1.1" xmlns="http://www.topografix.com/GPX/1/1" xmlns:xsi="http://www.w3.org/2001/XMLSchema-instance" xsi:schemaLocation="http://www.topografix.com/GPX/1/1 http://www.topografix.com/GPX/1/1/gpx.xsd"><metadata><name>Wikiloc - Juan de Fuca Escape Trail</name><author><name>Walter Moar</name><link href="https://www.wikiloc.com/wikiloc/user.do?id=1267027"><text>Walter Moar on Wikiloc</text></link></author><link href="https://www.wikiloc.com/hiking-trails/juan-de-fuca-escape-trail-9164850"><text>Juan de Fuca Escape Trail on Wikiloc</text></link><time>2015-03-22T16:08:44Z</time></metadata><wpt lat="48.438559" lon="-124.114723"><ele>1.9</ele><time>2015-03-22T15:53:10Z</time><name>Juan de Fuca Trail</name><cmt></cmt><desc></desc></wpt><wpt lat="48.442734" lon="-124.111172"><ele>140.5</ele><time>2015-03-22T16:10:04Z</time><name>Pole #65</name><cmt></cmt><desc></desc></wpt><trk><name>Juan de Fuca Escape Trail - Wikiloc</name><cmt></cmt><desc></desc><trkseg><trkpt lat="48.438556" lon="-124.114731"><ele>2.117</ele><time>2015-03-22T15:53:06Z</time></trkpt><trkpt lat="48.438558" lon="-124.114728"><ele>2.187</ele><time>2015-03-22T15:53:07Z</time></trkpt><trkpt lat="48.438564" lon="-124.114728"><ele>11.715</ele><time>2015-03-22T15:53:13Z</time></trkpt><trkpt lat="48.438563" lon="-124.114729"><ele>11.707</ele><time>2015-03-22T15:53:14Z</time></trkpt><trkpt lat="48.438589" lon="-124.114686"><ele>15.090</ele><time>2015-03-22T15:53:37Z</time></trkpt><trkpt lat="48.438596" lon="-124.114684"><ele>13.692</ele><time>2015-03-22T15:53:38Z</time></trkpt><trkpt lat="48.438603" lon="-124.114672"><ele>12.687</ele><time>2015-03-22T15:53:40Z</time></trkpt><trkpt lat="48.438651" lon="-124.114624"><ele>14.155</ele><time>2015-03-22T15:53:50Z</time></trkpt><trkpt lat="48.438733" lon="-124.114660"><ele>14.629</ele><time>2015-03-22T15:54:03Z</time></trkpt><trkpt lat="48.438787" lon="-124.114684"><ele>15.066</ele><time>2015-03-22T15:54:14Z</time></trkpt><trkpt lat="48.438824" lon="-124.114639"><ele>16.061</ele><time>2015-03-22T15:54:27Z</time></trkpt><trkpt lat="48.438841" lon="-124.114594"><ele>19.471</ele><time>2015-03-22T15:54:41Z</time></trkpt><trkpt lat="48.438874" lon="-124.114573"><ele>21.341</ele><time>2015-03-22T15:54:52Z</time></trkpt><trkpt lat="48.438937" lon="-124.114549"><ele>24.215</ele><time>2015-03-22T15:55:08Z</time></trkpt><trkpt lat="48.438996" lon="-124.114527"><ele>26.607</ele><time>2015-03-22T15:55:21Z</time></trkpt><trkpt lat="48.439052" lon="-124.114518"><ele>27.516</ele><time>2015-03-22T15:55:33Z</time></trkpt><trkpt lat="48.439058" lon="-124.114540"><ele>27.558</ele><time>2015-03-22T15:55:41Z</time></trkpt><trkpt lat="48.439033" lon="-124.114549"><ele>28.543</ele><time>2015-03-22T15:55:54Z</time></trkpt><trkpt lat="48.439059" lon="-124.114456"><ele>31.481</ele><time>2015-03-22T15:56:07Z</time></trkpt><trkpt lat="48.439104" lon="-124.114459"><ele>32.355</ele><time>2015-03-22T15:56:15Z</time></trkpt><trkpt lat="48.439172" lon="-124.114505"><ele>34.362</ele><time>2015-03-22T15:56:27Z</time></trkpt><trkpt lat="48.439171" lon="-124.114431"><ele>37.637</ele><time>2015-03-22T15:56:38Z</time></trkpt><trkpt lat="48.439137" lon="-124.114255"><ele>41.034</ele><time>2015-03-22T15:56:52Z</time></trkpt><trkpt lat="48.439155" lon="-124.114208"><ele>42.455</ele><time>2015-03-22T15:56:57Z</time></trkpt><trkpt lat="48.439215" lon="-124.114163"><ele>42.410</ele><time>2015-03-22T15:57:10Z</time></trkpt><trkpt lat="48.439249" lon="-124.114122"><ele>43.407</ele><time>2015-03-22T15:57:21Z</time></trkpt><trkpt lat="48.439253" lon="-124.114106"><ele>39.642</ele><time>2015-03-22T15:57:25Z</time></trkpt><trkpt lat="48.439258" lon="-124.114101"><ele>39.694</ele><time>2015-03-22T15:57:26Z</time></trkpt><trkpt lat="48.439262" lon="-124.114097"><ele>43.989</ele><time>2015-03-22T15:57:27Z</time></trkpt><trkpt lat="48.439267" lon="-124.114096"><ele>42.917</ele><time>2015-03-22T15:57:28Z</time></trkpt><trkpt lat="48.439394" lon="-124.113944"><ele>46.371</ele><time>2015-03-22T15:57:43Z</time></trkpt><trkpt lat="48.439486" lon="-124.113824"><ele>49.218</ele><time>2015-03-22T15:57:57Z</time></trkpt><trkpt lat="48.439548" lon="-124.113711"><ele>51.653</ele><time>2015-03-22T15:58:11Z</time></trkpt><trkpt lat="48.439581" lon="-124.113656"><ele>53.027</ele><time>2015-03-22T15:58:23Z</time></trkpt><trkpt lat="48.439646" lon="-124.113593"><ele>55.468</ele><time>2015-03-22T15:58:37Z</time></trkpt><trkpt lat="48.439594" lon="-124.113479"><ele>57.314</ele><time>2015-03-22T15:58:51Z</time></trkpt><trkpt lat="48.439603" lon="-124.113390"><ele>60.707</ele><time>2015-03-22T15:59:06Z</time></trkpt><trkpt lat="48.439612" lon="-124.113328"><ele>63.161</ele><time>2015-03-22T15:59:18Z</time></trkpt><trkpt lat="48.439560" lon="-124.113253"><ele>65.023</ele><time>2015-03-22T15:59:31Z</time></trkpt><trkpt lat="48.439625" lon="-124.113226"><ele>66.038</ele><time>2015-03-22T15:59:43Z</time></trkpt><trkpt lat="48.439711" lon="-124.113214"><ele>67.486</ele><time>2015-03-22T15:59:57Z</time></trkpt><trkpt lat="48.439776" lon="-124.113211"><ele>68.410</ele><time>2015-03-22T16:00:09Z</time></trkpt><trkpt lat="48.439872" lon="-124.113260"><ele>69.477</ele><time>2015-03-22T16:00:24Z</time></trkpt><trkpt lat="48.439964" lon="-124.113317"><ele>69.822</ele><time>2015-03-22T16:00:36Z</time></trkpt><trkpt lat="48.440142" lon="-124.113266"><ele>72.219</ele><time>2015-03-22T16:00:53Z</time></trkpt><trkpt lat="48.440271" lon="-124.113184"><ele>72.709</ele><time>2015-03-22T16:01:08Z</time></trkpt><trkpt lat="48.440383" lon="-124.113062"><ele>73.719</ele><time>2015-03-22T16:01:23Z</time></trkpt><trkpt lat="48.440488" lon="-124.113037"><ele>74.607</ele><time>2015-03-22T16:01:34Z</time></trkpt><trkpt lat="48.440580" lon="-124.113032"><ele>75.640</ele><time>2015-03-22T16:01:48Z</time></trkpt><trkpt lat="48.440617" lon="-124.113042"><ele>76.152</ele><time>2015-03-22T16:02:02Z</time></trkpt><trkpt lat="48.440599" lon="-124.113030"><ele>76.167</ele><time>2015-03-22T16:02:16Z</time></trkpt><trkpt lat="48.440644" lon="-124.112989"><ele>76.145</ele><time>2015-03-22T16:02:26Z</time></trkpt><trkpt lat="48.440741" lon="-124.112968"><ele>78.569</ele><time>2015-03-22T16:02:41Z</time></trkpt><trkpt lat="48.440837" lon="-124.112984"><ele>81.476</ele><time>2015-03-22T16:02:56Z</time></trkpt><trkpt lat="48.440904" lon="-124.112942"><ele>84.371</ele><time>2015-03-22T16:03:12Z</time></trkpt><trkpt lat="48.441041" lon="-124.112898"><ele>86.784</ele><time>2015-03-22T16:03:28Z</time></trkpt><trkpt lat="48.441128" lon="-124.112864"><ele>89.507</ele><time>2015-03-22T16:03:43Z</time></trkpt><trkpt lat="48.441210" lon="-124.112805"><ele>91.917</ele><time>2015-03-22T16:03:59Z</time></trkpt><trkpt lat="48.441290" lon="-124.112736"><ele>94.807</ele><time>2015-03-22T16:04:15Z</time></trkpt><trkpt lat="48.441410" lon="-124.112731"><ele>97.297</ele><time>2015-03-22T16:04:31Z</time></trkpt><trkpt lat="48.441476" lon="-124.112688"><ele>98.789</ele><time>2015-03-22T16:04:45Z</time></trkpt><trkpt lat="48.441566" lon="-124.112596"><ele>100.694</ele><time>2015-03-22T16:05:00Z</time></trkpt><trkpt lat="48.441635" lon="-124.112445"><ele>104.462</ele><time>2015-03-22T16:05:16Z</time></trkpt><trkpt lat="48.441747" lon="-124.112331"><ele>105.956</ele><time>2015-03-22T16:05:30Z</time></trkpt><trkpt lat="48.441833" lon="-124.112214"><ele>108.353</ele><time>2015-03-22T16:05:45Z</time></trkpt><trkpt lat="48.441949" lon="-124.112094"><ele>111.258</ele><time>2015-03-22T16:05:58Z</time></trkpt><trkpt lat="48.442001" lon="-124.111938"><ele>113.191</ele><time>2015-03-22T16:06:11Z</time></trkpt><trkpt lat="48.442003" lon="-124.111757"><ele>116.081</ele><time>2015-03-22T16:06:25Z</time></trkpt><trkpt lat="48.441936" lon="-124.111498"><ele>117.419</ele><time>2015-03-22T16:06:42Z</time></trkpt><trkpt lat="48.441951" lon="-124.111388"><ele>119.807</ele><time>2015-03-22T16:06:56Z</time></trkpt><trkpt lat="48.442013" lon="-124.111359"><ele>122.248</ele><time>2015-03-22T16:07:09Z</time></trkpt><trkpt lat="48.442086" lon="-124.111317"><ele>125.190</ele><time>2015-03-22T16:07:17Z</time></trkpt><trkpt lat="48.442176" lon="-124.111248"><ele>126.655</ele><time>2015-03-22T16:07:31Z</time></trkpt><trkpt lat="48.442264" lon="-124.111209"><ele>129.423</ele><time>2015-03-22T16:07:45Z</time></trkpt><trkpt lat="48.442332" lon="-124.111134"><ele>132.877</ele><time>2015-03-22T16:07:58Z</time></trkpt><trkpt lat="48.442372" lon="-124.111135"><ele>136.254</ele><time>2015-03-22T16:08:12Z</time></trkpt><trkpt lat="48.442417" lon="-124.111101"><ele>139.589</ele><time>2015-03-22T16:08:27Z</time></trkpt><trkpt lat="48.442461" lon="-124.110941"><ele>140.582</ele><time>2015-03-22T16:08:41Z</time></trkpt><trkpt lat="48.442465" lon="-124.110933"><ele>139.143</ele><time>2015-03-22T16:08:44Z</time></trkpt></trkseg></trk></gpx>