<?xml version="1.0" encoding="UTF-8"?><gpx creator="Wikiloc - https://www.wikiloc.com" version="1.1" xmlns="http://www.topografix.com/GPX/1/1" xmlns:xsi="http://www.w3.org/2001/XMLSchema-instance" xsi:schemaLocation="http://www.topografix.com/GPX/1/1 http://www.topografix.com/GPX/1/1/gpx.xsd"><metadata><name>Wikiloc - Juan de Fuca Escape Trail</name><author><name>Walter Moar</name><link href="https://www.wikiloc.com/wikiloc/user.do?id=1267027"><text>Walter Moar on Wikiloc</text></link></author><link href="https://www.wikiloc.com/hiking-trails/juan-de-fuca-escape-trail-9164973"><text>Juan de Fuca Escape Trail on Wikiloc</text></link><time>2015-03-22T22:23:10Z</time></metadata><trk><name>Juan de Fuca Escape Trail - Wikiloc</name><cmt></cmt><desc></desc><trkseg><trkpt lat="48.481166" lon="-124.272638"><ele>109.728</ele><time>2015-03-22T21:59:41Z</time></trkpt><trkpt lat="48.481163" lon="-124.272635"><ele>109.789</ele><time>2015-03-22T21:59:43Z</time></trkpt><trkpt lat="48.481167" lon="-124.272638"><ele>101.617</ele><time>2015-03-22T21:59:48Z</time></trkpt><trkpt lat="48.481169" lon="-124.272636"><ele>101.607</ele><time>2015-03-22T21:59:49Z</time></trkpt><trkpt lat="48.481213" lon="-124.272630"><ele>103.041</ele><time>2015-03-22T22:00:14Z</time></trkpt><trkpt lat="48.481222" lon="-124.272588"><ele>105.963</ele><time>2015-03-22T22:00:26Z</time></trkpt><trkpt lat="48.481281" lon="-124.272457"><ele>109.328</ele><time>2015-03-22T22:00:38Z</time></trkpt><trkpt lat="48.481366" lon="-124.272341"><ele>112.136</ele><time>2015-03-22T22:00:53Z</time></trkpt><trkpt lat="48.481494" lon="-124.272280"><ele>112.181</ele><time>2015-03-22T22:01:06Z</time></trkpt><trkpt lat="48.481613" lon="-124.272240"><ele>112.199</ele><time>2015-03-22T22:01:23Z</time></trkpt><trkpt lat="48.481667" lon="-124.272186"><ele>113.695</ele><time>2015-03-22T22:01:36Z</time></trkpt><trkpt lat="48.481700" lon="-124.272185"><ele>114.546</ele><time>2015-03-22T22:01:47Z</time></trkpt><trkpt lat="48.481747" lon="-124.272152"><ele>117.488</ele><time>2015-03-22T22:01:59Z</time></trkpt><trkpt lat="48.481811" lon="-124.272109"><ele>118.916</ele><time>2015-03-22T22:02:10Z</time></trkpt><trkpt lat="48.481859" lon="-124.272069"><ele>120.307</ele><time>2015-03-22T22:02:16Z</time></trkpt><trkpt lat="48.481866" lon="-124.272058"><ele>120.323</ele><time>2015-03-22T22:02:17Z</time></trkpt><trkpt lat="48.481969" lon="-124.272042"><ele>120.865</ele><time>2015-03-22T22:02:32Z</time></trkpt><trkpt lat="48.482134" lon="-124.272105"><ele>123.740</ele><time>2015-03-22T22:02:53Z</time></trkpt><trkpt lat="48.482341" lon="-124.272214"><ele>122.778</ele><time>2015-03-22T22:03:10Z</time></trkpt><trkpt lat="48.482502" lon="-124.272204"><ele>124.683</ele><time>2015-03-22T22:03:28Z</time></trkpt><trkpt lat="48.482567" lon="-124.272241"><ele>125.631</ele><time>2015-03-22T22:03:45Z</time></trkpt><trkpt lat="48.482554" lon="-124.272299"><ele>122.267</ele><time>2015-03-22T22:03:56Z</time></trkpt><trkpt lat="48.482553" lon="-124.272307"><ele>122.214</ele><time>2015-03-22T22:03:57Z</time></trkpt><trkpt lat="48.482586" lon="-124.272397"><ele>120.354</ele><time>2015-03-22T22:04:11Z</time></trkpt><trkpt lat="48.482701" lon="-124.272491"><ele>120.809</ele><time>2015-03-22T22:04:28Z</time></trkpt><trkpt lat="48.482773" lon="-124.272530"><ele>124.207</ele><time>2015-03-22T22:04:47Z</time></trkpt><trkpt lat="48.482870" lon="-124.272492"><ele>127.520</ele><time>2015-03-22T22:05:01Z</time></trkpt><trkpt lat="48.482908" lon="-124.272458"><ele>129.472</ele><time>2015-03-22T22:05:19Z</time></trkpt><trkpt lat="48.482920" lon="-124.272491"><ele>132.867</ele><time>2015-03-22T22:05:32Z</time></trkpt><trkpt lat="48.483019" lon="-124.272447"><ele>136.245</ele><time>2015-03-22T22:05:46Z</time></trkpt><trkpt lat="48.483135" lon="-124.272411"><ele>139.560</ele><time>2015-03-22T22:06:05Z</time></trkpt><trkpt lat="48.483227" lon="-124.272414"><ele>141.988</ele><time>2015-03-22T22:06:24Z</time></trkpt><trkpt lat="48.483271" lon="-124.272411"><ele>145.364</ele><time>2015-03-22T22:06:42Z</time></trkpt><trkpt lat="48.483305" lon="-124.272481"><ele>148.273</ele><time>2015-03-22T22:06:57Z</time></trkpt><trkpt lat="48.483341" lon="-124.272577"><ele>151.185</ele><time>2015-03-22T22:07:15Z</time></trkpt><trkpt lat="48.483422" lon="-124.272602"><ele>154.013</ele><time>2015-03-22T22:07:32Z</time></trkpt><trkpt lat="48.483517" lon="-124.272670"><ele>154.407</ele><time>2015-03-22T22:07:51Z</time></trkpt><trkpt lat="48.483644" lon="-124.272632"><ele>155.476</ele><time>2015-03-22T22:08:08Z</time></trkpt><trkpt lat="48.483797" lon="-124.272533"><ele>155.918</ele><time>2015-03-22T22:08:26Z</time></trkpt><trkpt lat="48.483834" lon="-124.272522"><ele>158.333</ele><time>2015-03-22T22:08:39Z</time></trkpt><trkpt lat="48.483863" lon="-124.272492"><ele>161.241</ele><time>2015-03-22T22:08:55Z</time></trkpt><trkpt lat="48.483897" lon="-124.272389"><ele>164.536</ele><time>2015-03-22T22:09:09Z</time></trkpt><trkpt lat="48.483968" lon="-124.272398"><ele>167.944</ele><time>2015-03-22T22:09:22Z</time></trkpt><trkpt lat="48.484059" lon="-124.272409"><ele>171.350</ele><time>2015-03-22T22:09:39Z</time></trkpt><trkpt lat="48.484128" lon="-124.272416"><ele>173.726</ele><time>2015-03-22T22:09:51Z</time></trkpt><trkpt lat="48.484235" lon="-124.272337"><ele>174.647</ele><time>2015-03-22T22:10:07Z</time></trkpt><trkpt lat="48.484291" lon="-124.272321"><ele>176.511</ele><time>2015-03-22T22:10:22Z</time></trkpt><trkpt lat="48.484343" lon="-124.272303"><ele>179.907</ele><time>2015-03-22T22:10:33Z</time></trkpt><trkpt lat="48.484433" lon="-124.272339"><ele>181.811</ele><time>2015-03-22T22:10:49Z</time></trkpt><trkpt lat="48.484479" lon="-124.272311"><ele>185.213</ele><time>2015-03-22T22:11:02Z</time></trkpt><trkpt lat="48.484582" lon="-124.272369"><ele>188.168</ele><time>2015-03-22T22:11:18Z</time></trkpt><trkpt lat="48.484653" lon="-124.272338"><ele>190.596</ele><time>2015-03-22T22:11:33Z</time></trkpt><trkpt lat="48.484722" lon="-124.272290"><ele>190.011</ele><time>2015-03-22T22:11:46Z</time></trkpt><trkpt lat="48.484850" lon="-124.272270"><ele>191.059</ele><time>2015-03-22T22:12:06Z</time></trkpt><trkpt lat="48.485034" lon="-124.272284"><ele>193.495</ele><time>2015-03-22T22:12:24Z</time></trkpt><trkpt lat="48.485151" lon="-124.272213"><ele>193.849</ele><time>2015-03-22T22:12:38Z</time></trkpt><trkpt lat="48.485180" lon="-124.271882"><ele>193.402</ele><time>2015-03-22T22:12:59Z</time></trkpt><trkpt lat="48.485235" lon="-124.271525"><ele>192.922</ele><time>2015-03-22T22:13:17Z</time></trkpt><trkpt lat="48.485258" lon="-124.271303"><ele>193.807</ele><time>2015-03-22T22:13:33Z</time></trkpt><trkpt lat="48.485305" lon="-124.271054"><ele>195.813</ele><time>2015-03-22T22:13:50Z</time></trkpt><trkpt lat="48.485403" lon="-124.270995"><ele>198.275</ele><time>2015-03-22T22:14:05Z</time></trkpt><trkpt lat="48.485556" lon="-124.270964"><ele>199.620</ele><time>2015-03-22T22:14:22Z</time></trkpt><trkpt lat="48.485735" lon="-124.270958"><ele>202.518</ele><time>2015-03-22T22:14:39Z</time></trkpt><trkpt lat="48.485896" lon="-124.270922"><ele>204.453</ele><time>2015-03-22T22:14:57Z</time></trkpt><trkpt lat="48.486044" lon="-124.270836"><ele>206.891</ele><time>2015-03-22T22:15:13Z</time></trkpt><trkpt lat="48.486188" lon="-124.270639"><ele>207.397</ele><time>2015-03-22T22:15:30Z</time></trkpt><trkpt lat="48.486353" lon="-124.270388"><ele>208.389</ele><time>2015-03-22T22:15:49Z</time></trkpt><trkpt lat="48.486479" lon="-124.270170"><ele>211.206</ele><time>2015-03-22T22:16:09Z</time></trkpt><trkpt lat="48.486567" lon="-124.270001"><ele>212.126</ele><time>2015-03-22T22:16:24Z</time></trkpt><trkpt lat="48.486660" lon="-124.269870"><ele>213.107</ele><time>2015-03-22T22:16:39Z</time></trkpt><trkpt lat="48.486710" lon="-124.269711"><ele>215.057</ele><time>2015-03-22T22:16:55Z</time></trkpt><trkpt lat="48.486723" lon="-124.269511"><ele>215.549</ele><time>2015-03-22T22:17:10Z</time></trkpt><trkpt lat="48.486736" lon="-124.269303"><ele>216.944</ele><time>2015-03-22T22:17:23Z</time></trkpt><trkpt lat="48.486752" lon="-124.268995"><ele>217.432</ele><time>2015-03-22T22:17:39Z</time></trkpt><trkpt lat="48.486861" lon="-124.268852"><ele>217.957</ele><time>2015-03-22T22:17:49Z</time></trkpt><trkpt lat="48.486997" lon="-124.268753"><ele>218.865</ele><time>2015-03-22T22:18:06Z</time></trkpt><trkpt lat="48.487148" lon="-124.268700"><ele>219.861</ele><time>2015-03-22T22:18:24Z</time></trkpt><trkpt lat="48.487275" lon="-124.268646"><ele>221.266</ele><time>2015-03-22T22:18:38Z</time></trkpt><trkpt lat="48.487438" lon="-124.268614"><ele>223.229</ele><time>2015-03-22T22:18:54Z</time></trkpt><trkpt lat="48.487584" lon="-124.268592"><ele>224.621</ele><time>2015-03-22T22:19:10Z</time></trkpt><trkpt lat="48.487764" lon="-124.268564"><ele>225.607</ele><time>2015-03-22T22:19:25Z</time></trkpt><trkpt lat="48.487888" lon="-124.268578"><ele>225.635</ele><time>2015-03-22T22:19:35Z</time></trkpt><trkpt lat="48.487988" lon="-124.268584"><ele>226.147</ele><time>2015-03-22T22:19:43Z</time></trkpt><trkpt lat="48.488191" lon="-124.268614"><ele>226.512</ele><time>2015-03-22T22:20:00Z</time></trkpt><trkpt lat="48.488365" lon="-124.268614"><ele>226.570</ele><time>2015-03-22T22:20:16Z</time></trkpt><trkpt lat="48.488487" lon="-124.268528"><ele>227.065</ele><time>2015-03-22T22:20:31Z</time></trkpt><trkpt lat="48.488590" lon="-124.268384"><ele>227.043</ele><time>2015-03-22T22:20:47Z</time></trkpt><trkpt lat="48.488674" lon="-124.268231"><ele>227.029</ele><time>2015-03-22T22:21:03Z</time></trkpt><trkpt lat="48.488694" lon="-124.268175"><ele>227.549</ele><time>2015-03-22T22:21:07Z</time></trkpt><trkpt lat="48.488809" lon="-124.267920"><ele>228.002</ele><time>2015-03-22T22:21:24Z</time></trkpt><trkpt lat="48.488868" lon="-124.267640"><ele>228.522</ele><time>2015-03-22T22:21:40Z</time></trkpt><trkpt lat="48.488860" lon="-124.267511"><ele>229.407</ele><time>2015-03-22T22:21:55Z</time></trkpt><trkpt lat="48.488793" lon="-124.267389"><ele>230.913</ele><time>2015-03-22T22:22:10Z</time></trkpt><trkpt lat="48.488717" lon="-124.267308"><ele>232.895</ele><time>2015-03-22T22:22:23Z</time></trkpt><trkpt lat="48.488629" lon="-124.267191"><ele>233.750</ele><time>2015-03-22T22:22:35Z</time></trkpt><trkpt lat="48.488573" lon="-124.267124"><ele>234.728</ele><time>2015-03-22T22:22:43Z</time></trkpt><trkpt lat="48.488503" lon="-124.266940"><ele>236.693</ele><time>2015-03-22T22:22:57Z</time></trkpt><trkpt lat="48.488457" lon="-124.266825"><ele>236.111</ele><time>2015-03-22T22:23:10Z</time></trkpt></trkseg></trk></gpx>