<?xml version="1.0" encoding="UTF-8"?><gpx creator="Wikiloc - https://www.wikiloc.com" version="1.1" xmlns="http://www.topografix.com/GPX/1/1" xmlns:xsi="http://www.w3.org/2001/XMLSchema-instance" xsi:schemaLocation="http://www.topografix.com/GPX/1/1 http://www.topografix.com/GPX/1/1/gpx.xsd"><metadata><name>Wikiloc - Juan de Fuca Escape Trail</name><author><name>Walter Moar</name><link href="https://www.wikiloc.com/wikiloc/user.do?id=1267027"><text>Walter Moar on Wikiloc</text></link></author><link href="https://www.wikiloc.com/hiking-trails/juan-de-fuca-escape-trail-9164767"><text>Juan de Fuca Escape Trail on Wikiloc</text></link><time>2015-03-22T15:20:55Z</time></metadata><trk><name>Juan de Fuca Escape Trail - Wikiloc</name><cmt></cmt><desc></desc><trkseg><trkpt lat="48.437977" lon="-124.103702"><ele>138.162</ele><time>2015-03-22T15:17:29Z</time></trkpt><trkpt lat="48.437979" lon="-124.103702"><ele>138.183</ele><time>2015-03-22T15:17:30Z</time></trkpt><trkpt lat="48.437986" lon="-124.103706"><ele>134.211</ele><time>2015-03-22T15:17:33Z</time></trkpt><trkpt lat="48.437988" lon="-124.103708"><ele>134.207</ele><time>2015-03-22T15:17:34Z</time></trkpt><trkpt lat="48.438076" lon="-124.103702"><ele>133.815</ele><time>2015-03-22T15:18:00Z</time></trkpt><trkpt lat="48.438108" lon="-124.103701"><ele>135.287</ele><time>2015-03-22T15:18:23Z</time></trkpt><trkpt lat="48.438118" lon="-124.103498"><ele>138.152</ele><time>2015-03-22T15:18:37Z</time></trkpt><trkpt lat="48.438183" lon="-124.103317"><ele>140.030</ele><time>2015-03-22T15:18:52Z</time></trkpt><trkpt lat="48.438270" lon="-124.103151"><ele>143.483</ele><time>2015-03-22T15:19:07Z</time></trkpt><trkpt lat="48.438363" lon="-124.102958"><ele>146.312</ele><time>2015-03-22T15:19:22Z</time></trkpt><trkpt lat="48.438382" lon="-124.102905"><ele>147.293</ele><time>2015-03-22T15:19:26Z</time></trkpt><trkpt lat="48.438441" lon="-124.102689"><ele>149.665</ele><time>2015-03-22T15:19:42Z</time></trkpt><trkpt lat="48.438582" lon="-124.102493"><ele>152.568</ele><time>2015-03-22T15:19:59Z</time></trkpt><trkpt lat="48.438691" lon="-124.102553"><ele>154.914</ele><time>2015-03-22T15:20:11Z</time></trkpt><trkpt lat="48.438734" lon="-124.102556"><ele>154.407</ele><time>2015-03-22T15:20:32Z</time></trkpt><trkpt lat="48.438756" lon="-124.102611"><ele>154.015</ele><time>2015-03-22T15:20:55Z</time></trkpt></trkseg></trk></gpx>